[{"OBJECT_NAME":"YOUTHSAT","OBJECT_ID":"2011-015B","EPOCH":"2026-03-09T21:54:01.247616","MEAN_MOTION":14.25582623,"ECCENTRICITY":0.00132956,"INCLINATION":98.3595,"RA_OF_ASC_NODE":47.4945,"ARG_OF_PERICENTER":274.2418,"MEAN_ANOMALY":140.1556,"EPHEMERIS_TYPE":0,"CLASSIFICATION_TYPE":"U","NORAD_CAT_ID":37388,"ELEMENT_SET_NO":999,"REV_AT_EPOCH":77349,"BSTAR":0.00014902974,"MEAN_MOTION_DOT":3.12e-6,"MEAN_MOTION_DDOT":0},{"OBJECT_NAME":"DMSP 5D-3 F18 DEB","OBJECT_ID":"2009-057C","EPOCH":"2026-03-09T22:08:13.327872","MEAN_MOTION":14.28390611,"ECCENTRICITY":0.00055324,"INCLINATION":98.6481,"RA_OF_ASC_NODE":60.0871,"ARG_OF_PERICENTER":53.0668,"MEAN_ANOMALY":22.9264,"EPHEMERIS_TYPE":0,"CLASSIFICATION_TYPE":"U","NORAD_CAT_ID":35953,"ELEMENT_SET_NO":999,"REV_AT_EPOCH":84834,"BSTAR":0.0010676193,"MEAN_MOTION_DOT":2.626e-5,"MEAN_MOTION_DDOT":0}]
